1 45098U 20006BG  22365.45862696  .00005143  00000-0  36378-3 0  9991
2 45098  53.0566  73.0594 0002498  56.3348 303.7879 15.06412530161544
1 45098U 20006BG  22365.59132192  .00004416  00000-0  31509-3 0  9990
2 45098  53.0574  72.4638 0002104  52.5649 307.5531 15.06409077161562
1 45098U 20006BG  23001.45384614  .00001353  00000-0  10975-3 0  9992
2 45098  53.0587  68.5873 0001320  76.3472 283.7664 15.06390108161690
1 45098U 20006BG  23002.44905063 -.00002860  00000-0 -17312-3 0  9997
2 45098  53.0568  64.1243 0002044  48.0998 312.0165 15.06405547161848
1 45098U 20006BG  23002.84712330 -.00001152  00000-0 -58423-4 0  9996
2 45098  53.0565  62.3367 0002027  46.5470 313.5688 15.06409997161907
1 45098U 20006BG  23003.44424997  .00000613  00000-0  60053-4 0  9993
2 45098  53.0566  59.6560 0001959  43.6794 316.4349 15.06395495161994
1 45098U 20006BG  23004.43945162  .00001032  00000-0  88216-4 0  9992
2 45098  53.0567  55.1881 0002061  47.0127 313.1035 15.06399921162147
1 45098U 20006BG  23004.83753318  .00000374  00000-0  44014-4 0  9992
2 45098  53.0568  53.4014 0001997  44.7155 315.3994 15.06401011162208
1 45098U 20006BG  23005.50098000  .00002280  00000-0  17187-3 0  9995
2 45098  53.0569  50.4234 0001996  42.5466 317.5677 15.06418719162306
1 45098U 20006BG  23005.83273164 -.00001519  00000-0 -83091-4 0  9991
2 45098  53.0566  48.9337 0001424  32.5077 327.5999 15.06396251162351
1 45098U 20006BG  23006.36352287 -.00002620  00000-0 -15708-3 0  9997
2 45098  53.0553  46.5507 0001931  47.4638 312.6514 15.06383579162437
1 45098U 20006BG  23006.96064468 -.00003480  00000-0 -21482-3 0  9995
2 45098  53.0539  43.8716 0002443  54.0661 306.0554 15.06395421162522
1 45098U 20006BG  23007.82314394 -.00001566  00000-0 -86239-4 0  9992
2 45098  53.0551  39.9972 0001787  53.1608 306.9545 15.06402984162653
1 45098U 20006BG  23008.48661489  .00002816  00000-0  20792-3 0  9993
2 45098  53.0551  37.0181 0001850  56.7372 303.3794 15.06394608162753
1 45098U 20006BG  23009.34913076  .00000860  00000-0  76663-4 0  9997
2 45098  53.0547  33.1453 0001876  58.3552 301.7620 15.06394653162887
1 45098U 20006BG  23010.41067645 -.00002293  00000-0 -13499-3 0  9990
2 45098  53.0556  28.3822 0001786  61.7190 298.3979 15.06414684163043
1 45098U 20006BG  23010.74241858 -.00000197  00000-0  57024-5 0  9990
2 45098  53.0555  26.8930 0002012  66.7320 293.3880 15.06394298163097
1 45098U 20006BG  23011.33953521  .00001714  00000-0  13398-3 0  9992
2 45098  53.0553  24.2144 0001855  74.3823 285.7371 15.06398842163180
1 45098U 20006BG  23011.73761953  .00001097  00000-0  92563-4 0  9998
2 45098  53.0554  22.4277 0001807  76.4463 283.6727 15.06396114163247
1 45098U 20006BG  23012.73282070  .00000015  00000-0  19906-4 0  9996
2 45098  53.0550  17.9575 0001841  79.7890 280.3307 15.06400966163396
1 45098U 20006BG  23013.26359583  .00001360  00000-0  11016-3 0  9996
2 45098  53.0546  15.5743 0001782  88.3620 271.7573 15.06399088163473
1 45098U 20006BG  23013.72802157  .00000003  00000-0  19135-4 0  9991
2 45098  53.0546  13.4889 0001650  95.0834 265.0343 15.06402797163548
1 45098U 20006BG  23015.38670414 -.00003078  00000-0 -18799-3 0  9995
2 45098  53.0556   6.0441 0001149 103.8752 256.2365 15.06376549163799
1 45098U 20006BG  23016.24918584  .00002837  00000-0  20921-3 0  9994
2 45098  53.0559   2.1710 0001621 102.2256 257.8914 15.06413582163926
1 45098U 20006BG  23016.91267548 -.00008124  00000-0 -52743-3 0  9999
2 45098  53.0556 359.1948 0001404 100.4563 259.6584 15.06375990164026
1 45098U 20006BG  23017.37711809  .00000780  00000-0  71295-4 0  9996
2 45098  53.0548 357.1080 0001381  93.8570 266.2577 15.06364624164094
1 45098U 20006BG  23017.90789022  .00001024  00000-0  87695-4 0  9990
2 45098  53.0554 354.7269 0001533  91.4733 268.6432 15.06382780164175
1 45098U 20006BG  23018.23961991  .00017422  00000-0  11853-2 0  9994
2 45098  53.0544 353.2370 0001469  87.6243 272.4914 15.06410120164226
1 45098U 20006BG  23018.70404793  .00009906  00000-0  68284-3 0  9997
2 45098  53.0531 351.1542 0001502  80.4043 279.7116 15.06406717162844
1 45098U 20006BG  23019.30118338 -.00009567  00000-0 -62475-3 0  9992
2 45098  53.0522 348.4708 0001602  92.2411 267.8761 15.06367675164382
1 45098U 20006BG  23020.29637502  .00017230  00000-0  11720-2 0  9991
2 45098  53.0542 344.0023 0001873  79.8270 280.2930 15.06424118164530
1 45098U 20006BG  23025.53778161  .00023465  00000-0  15871-2 0  9998
2 45098  53.0540 320.4748 0002350  76.1325 283.9925 15.06442142165321
1 45098U 20006BG  23026.06854172  .00028921  00000-0  19501-2 0  9990
2 45098  53.0537 318.0912 0001533  80.3032 279.8130 15.06445749165404
1 45098U 20006BG  23027.26278849  .00006363  00000-0  44566-3 0  9990
2 45098  53.0533 312.7302 0001389  90.4418 269.6731 15.06399955165583
1 45098U 20006BG  23028.12530978  .00020341  00000-0  13809-2 0  9997
2 45098  53.0543 308.8597 0001426  96.1264 263.9888 15.06389851165719
1 45098U 20006BG  23029.18685824  .00008722  00000-0  60358-3 0  9996
2 45098  53.0543 304.0936 0001428  98.6455 261.4695 15.06405927165874
1 45098U 20006BG  23030.18206032  .00003504  00000-0  25401-3 0  9991
2 45098  53.0532 299.6244 0001296  93.3821 266.7316 15.06404262166022
1 45098U 20006BG  23030.91187557  .00001163  00000-0  96939-4 0  9996
2 45098  53.0527 296.3473 0001261 100.3479 259.7652 15.06400282166139
1 45098U 20006BG  23031.17726074  .00002442  00000-0  18273-3 0  9993
2 45098  53.0532 295.1563 0001259  97.7794 262.3338 15.06406180166176
